STARLINK-5940           
1 56012U 23042AC  25172.62309078 -.00007740  00000+0 -55803-3 0  9990
2 56012  43.0067  22.1418 0001120 286.3221  73.7498 15.02567461124127
STARLINK-5941           
1 56013U 23042AD  25172.61606161  .00001023  00000+0  90771-4 0  9993
2 56013  43.0070  34.2344 0001748 269.9155  90.1487 15.02537670123649
STARLINK-5942           
1 56014U 23042AE  25172.61642646  .00000240  00000+0  32816-4 0  9998
2 56014  43.0053  22.0861 0001201 265.7538  94.3167 15.02535053123782
STARLINK-5939           
1 56015U 23042AF  25172.61975488  .00000320  00000+0  38747-4 0  9990
2 56015  43.0054  22.1125 0001348 267.0286  93.0402 15.02534537123789
STARLINK-5943           
1 56016U 23042AG  25172.86568895  .00000378  00000+0  43032-4 0  9994
2 56016  43.0054  20.5147 0001073 267.6567  92.4153 15.02535059124168
STARLINK-5934           
1 56017U 23042AH  25172.01257701  .00000010  00000+0  15832-4 0  9993
2 56017  43.0037  25.2977 0001249 267.5048  92.5651 15.02534498123698
STARLINK-5945           
1 56018U 23042AJ  25172.60088994 -.00000124  00000+0  59331-5 0  9995
2 56018  43.0060  21.9733 0001454 266.2128  93.8548 15.02532752123781
STARLINK-5949           
1 56019U 23042AK  25172.61420697  .00000354  00000+0  41253-4 0  9994
2 56019  43.0057  22.0726 0001156 264.8760  95.1950 15.02537661123783
STARLINK-5912           
1 56020U 23042AL  25172.27182924 -.00000135  00000+0  50641-5 0  9996
2 56020  43.0045  23.7989 0001234 272.2260  87.8441 15.02535941123733
STARLINK-5907           
1 56021U 23042AM  25172.60754659  .00000180  00000+0  28432-4 0  9995
2 56021  43.0048  22.0230 0001101 269.9655  90.1062 15.02537046123781
STARLINK-5783           
1 56022U 23042AN  25172.85680748  .00000039  00000+0  17987-4 0  9996
2 56022  43.0054  20.4473 0001251 264.8738  95.1961 15.02535318124168
STARLINK-5771           
1 56023U 23042AP  25172.86235868 -.00000163  00000+0  30032-5 0  9993
2 56023  43.0047  20.4910 0001116 269.8668  90.2047 15.02537681124160
STARLINK-5772           
1 56024U 23042AQ  25172.84682154 -.00000056  00000+0  10961-4 0  9995
2 56024  43.0048  20.3735 0001142 272.6510  87.4202 15.02532488124164
STARLINK-5766           
1 56025U 23042AR  25172.62419531  .00000080  00000+0  21030-4 0  9994
2 56025  43.0052  22.1374 0001120 269.8553  90.2161 15.02536802123787
