[
  {
    "OBJECT_NAME": "STARLINK-5940",
    "OBJECT_ID": "2023-042AC",
    "EPOCH": "2025-06-21T14:57:15.043392",
    "MEAN_MOTION": 15.02567461,
    "ECCENTRICITY": 0.000112,
    "INCLINATION": 43.0067,
    "RA_OF_ASC_NODE": 22.1418,
    "ARG_OF_PERICENTER": 286.3221,
    "MEAN_ANOMALY": 73.7498,
    "EPHEMERIS_TYPE": 0,
    "CLASSIFICATION_TYPE": "U",
    "NORAD_CAT_ID": 56012,
    "ELEMENT_SET_NO": 999,
    "REV_AT_EPOCH": 12412,
    "BSTAR": -0.00055803,
    "MEAN_MOTION_DOT": -7.74e-05,
    "MEAN_MOTION_DDOT": 0
  },
  {
    "OBJECT_NAME": "STARLINK-5941",
    "OBJECT_ID": "2023-042AD",
    "EPOCH": "2025-06-21T14:47:07.723104",
    "MEAN_MOTION": 15.0253767,
    "ECCENTRICITY": 0.0001748,
    "INCLINATION": 43.007,
    "RA_OF_ASC_NODE": 34.2344,
    "ARG_OF_PERICENTER": 269.9155,
    "MEAN_ANOMALY": 90.1487,
    "EPHEMERIS_TYPE": 0,
    "CLASSIFICATION_TYPE": "U",
    "NORAD_CAT_ID": 56013,
    "ELEMENT_SET_NO": 999,
    "REV_AT_EPOCH": 12364,
    "BSTAR": 9.0771e-05,
    "MEAN_MOTION_DOT": 1.023e-05,
    "MEAN_MOTION_DDOT": 0
  },
  {
    "OBJECT_NAME": "STARLINK-5942",
    "OBJECT_ID": "2023-042AE",
    "EPOCH": "2025-06-21T14:47:39.246144",
    "MEAN_MOTION": 15.02535053,
    "ECCENTRICITY": 0.0001201,
    "INCLINATION": 43.0053,
    "RA_OF_ASC_NODE": 22.0861,
    "ARG_OF_PERICENTER": 265.7538,
    "MEAN_ANOMALY": 94.3167,
    "EPHEMERIS_TYPE": 0,
    "CLASSIFICATION_TYPE": "U",
    "NORAD_CAT_ID": 56014,
    "ELEMENT_SET_NO": 999,
    "REV_AT_EPOCH": 12378,
    "BSTAR": 3.2816e-05,
    "MEAN_MOTION_DOT": 2.4e-06,
    "MEAN_MOTION_DDOT": 0
  },
  {
    "OBJECT_NAME": "STARLINK-5939",
    "OBJECT_ID": "2023-042AF",
    "EPOCH": "2025-06-21T14:52:26.821632",
    "MEAN_MOTION": 15.02534537,
    "ECCENTRICITY": 0.0001348,
    "INCLINATION": 43.0054,
    "RA_OF_ASC_NODE": 22.1125,
    "ARG_OF_PERICENTER": 267.0286,
    "MEAN_ANOMALY": 93.0402,
    "EPHEMERIS_TYPE": 0,
    "CLASSIFICATION_TYPE": "U",
    "NORAD_CAT_ID": 56015,
    "ELEMENT_SET_NO": 999,
    "REV_AT_EPOCH": 12378,
    "BSTAR": 3.8747e-05,
    "MEAN_MOTION_DOT": 3.2e-06,
    "MEAN_MOTION_DDOT": 0
  },
  {
    "OBJECT_NAME": "STARLINK-5943",
    "OBJECT_ID": "2023-042AG",
    "EPOCH": "2025-06-21T20:46:35.525280",
    "MEAN_MOTION": 15.02535059,
    "ECCENTRICITY": 0.0001073,
    "INCLINATION": 43.0054,
    "RA_OF_ASC_NODE": 20.5147,
    "ARG_OF_PERICENTER": 267.6567,
    "MEAN_ANOMALY": 92.4153,
    "EPHEMERIS_TYPE": 0,
    "CLASSIFICATION_TYPE": "U",
    "NORAD_CAT_ID": 56016,
    "ELEMENT_SET_NO": 999,
    "REV_AT_EPOCH": 12416,
    "BSTAR": 4.3032e-05,
    "MEAN_MOTION_DOT": 3.78e-06,
    "MEAN_MOTION_DDOT": 0
  },
  {
    "OBJECT_NAME": "STARLINK-5934",
    "OBJECT_ID": "2023-042AH",
    "EPOCH": "2025-06-21T00:18:06.653664",
    "MEAN_MOTION": 15.02534498,
    "ECCENTRICITY": 0.0001249,
    "INCLINATION": 43.0037,
    "RA_OF_ASC_NODE": 25.2977,
    "ARG_OF_PERICENTER": 267.5048,
    "MEAN_ANOMALY": 92.5651,
    "EPHEMERIS_TYPE": 0,
    "CLASSIFICATION_TYPE": "U",
    "NORAD_CAT_ID": 56017,
    "ELEMENT_SET_NO": 999,
    "REV_AT_EPOCH": 12369,
    "BSTAR": 1.5832e-05,
    "MEAN_MOTION_DOT": 1e-07,
    "MEAN_MOTION_DDOT": 0
  },
  {
    "OBJECT_NAME": "STARLINK-5945",
    "OBJECT_ID": "2023-042AJ",
    "EPOCH": "2025-06-21T14:25:16.890816",
    "MEAN_MOTION": 15.02532752,
    "ECCENTRICITY": 0.0001454,
    "INCLINATION": 43.006,
    "RA_OF_ASC_NODE": 21.9733,
    "ARG_OF_PERICENTER": 266.2128,
    "MEAN_ANOMALY": 93.8548,
    "EPHEMERIS_TYPE": 0,
    "CLASSIFICATION_TYPE": "U",
    "NORAD_CAT_ID": 56018,
    "ELEMENT_SET_NO": 999,
    "REV_AT_EPOCH": 12378,
    "BSTAR": 5.9331e-06,
    "MEAN_MOTION_DOT": -1.24e-06,
    "MEAN_MOTION_DDOT": 0
  },
  {
    "OBJECT_NAME": "STARLINK-5949",
    "OBJECT_ID": "2023-042AK",
    "EPOCH": "2025-06-21T14:44:27.482208",
    "MEAN_MOTION": 15.02537661,
    "ECCENTRICITY": 0.0001156,
    "INCLINATION": 43.0057,
    "RA_OF_ASC_NODE": 22.0726,
    "ARG_OF_PERICENTER": 264.876,
    "MEAN_ANOMALY": 95.195,
    "EPHEMERIS_TYPE": 0,
    "CLASSIFICATION_TYPE": "U",
    "NORAD_CAT_ID": 56019,
    "ELEMENT_SET_NO": 999,
    "REV_AT_EPOCH": 12378,
    "BSTAR": 4.1253e-05,
    "MEAN_MOTION_DOT": 3.54e-06,
    "MEAN_MOTION_DDOT": 0
  },
  {
    "OBJECT_NAME": "STARLINK-5912",
    "OBJECT_ID": "2023-042AL",
    "EPOCH": "2025-06-21T06:31:26.046336",
    "MEAN_MOTION": 15.02535941,
    "ECCENTRICITY": 0.0001234,
    "INCLINATION": 43.0045,
    "RA_OF_ASC_NODE": 23.7989,
    "ARG_OF_PERICENTER": 272.226,
    "MEAN_ANOMALY": 87.8441,
    "EPHEMERIS_TYPE": 0,
    "CLASSIFICATION_TYPE": "U",
    "NORAD_CAT_ID": 56020,
    "ELEMENT_SET_NO": 999,
    "REV_AT_EPOCH": 12373,
    "BSTAR": 5.0641e-06,
    "MEAN_MOTION_DOT": -1.35e-06,
    "MEAN_MOTION_DDOT": 0
  },
  {
    "OBJECT_NAME": "STARLINK-5907",
    "OBJECT_ID": "2023-042AM",
    "EPOCH": "2025-06-21T14:34:52.025376",
    "MEAN_MOTION": 15.02537046,
    "ECCENTRICITY": 0.0001101,
    "INCLINATION": 43.0048,
    "RA_OF_ASC_NODE": 22.023,
    "ARG_OF_PERICENTER": 269.9655,
    "MEAN_ANOMALY": 90.1062,
    "EPHEMERIS_TYPE": 0,
    "CLASSIFICATION_TYPE": "U",
    "NORAD_CAT_ID": 56021,
    "ELEMENT_SET_NO": 999,
    "REV_AT_EPOCH": 12378,
    "BSTAR": 2.8432e-05,
    "MEAN_MOTION_DOT": 1.8e-06,
    "MEAN_MOTION_DDOT": 0
  },
  {
    "OBJECT_NAME": "STARLINK-5783",
    "OBJECT_ID": "2023-042AN",
    "EPOCH": "2025-06-21T20:33:48.166272",
    "MEAN_MOTION": 15.02535318,
    "ECCENTRICITY": 0.0001251,
    "INCLINATION": 43.0054,
    "RA_OF_ASC_NODE": 20.4473,
    "ARG_OF_PERICENTER": 264.8738,
    "MEAN_ANOMALY": 95.1961,
    "EPHEMERIS_TYPE": 0,
    "CLASSIFICATION_TYPE": "U",
    "NORAD_CAT_ID": 56022,
    "ELEMENT_SET_NO": 999,
    "REV_AT_EPOCH": 12416,
    "BSTAR": 1.7987e-05,
    "MEAN_MOTION_DOT": 3.9e-07,
    "MEAN_MOTION_DDOT": 0
  },
  {
    "OBJECT_NAME": "STARLINK-5771",
    "OBJECT_ID": "2023-042AP",
    "EPOCH": "2025-06-21T20:41:47.789952",
    "MEAN_MOTION": 15.02537681,
    "ECCENTRICITY": 0.0001116,
    "INCLINATION": 43.0047,
    "RA_OF_ASC_NODE": 20.491,
    "ARG_OF_PERICENTER": 269.8668,
    "MEAN_ANOMALY": 90.2047,
    "EPHEMERIS_TYPE": 0,
    "CLASSIFICATION_TYPE": "U",
    "NORAD_CAT_ID": 56023,
    "ELEMENT_SET_NO": 999,
    "REV_AT_EPOCH": 12416,
    "BSTAR": 3.0032e-06,
    "MEAN_MOTION_DOT": -1.63e-06,
    "MEAN_MOTION_DDOT": 0
  },
  {
    "OBJECT_NAME": "STARLINK-5772",
    "OBJECT_ID": "2023-042AQ",
    "EPOCH": "2025-06-21T20:19:25.381056",
    "MEAN_MOTION": 15.02532488,
    "ECCENTRICITY": 0.0001142,
    "INCLINATION": 43.0048,
    "RA_OF_ASC_NODE": 20.3735,
    "ARG_OF_PERICENTER": 272.651,
    "MEAN_ANOMALY": 87.4202,
    "EPHEMERIS_TYPE": 0,
    "CLASSIFICATION_TYPE": "U",
    "NORAD_CAT_ID": 56024,
    "ELEMENT_SET_NO": 999,
    "REV_AT_EPOCH": 12416,
    "BSTAR": 1.0961e-05,
    "MEAN_MOTION_DOT": -5.6e-07,
    "MEAN_MOTION_DDOT": 0
  },
  {
    "OBJECT_NAME": "STARLINK-5766",
    "OBJECT_ID": "2023-042AR",
    "EPOCH": "2025-06-21T14:58:50.474784",
    "MEAN_MOTION": 15.02536802,
    "ECCENTRICITY": 0.000112,
    "INCLINATION": 43.0052,
    "RA_OF_ASC_NODE": 22.1374,
    "ARG_OF_PERICENTER": 269.8553,
    "MEAN_ANOMALY": 90.2161,
    "EPHEMERIS_TYPE": 0,
    "CLASSIFICATION_TYPE": "U",
    "NORAD_CAT_ID": 56025,
    "ELEMENT_SET_NO": 999,
    "REV_AT_EPOCH": 12378,
    "BSTAR": 2.103e-05,
    "MEAN_MOTION_DOT": 8e-07,
    "MEAN_MOTION_DDOT": 0
  }
]